C/2015 XY1 (Lemmon),h,04/26.1794/2018,148.8519,281.5943,196.1565,1.000658,7.923029,2000,5.5,4.0
# From MPC 97498
P/2015 X3 (PANSTARRS),e,24.4008,77.2786,306.7180,5.006159,0.0879928,0.43973886,215.6004,04/26.0/2022,2000,g 15.0,4.0
# From MPC119995
C/2015 X5 (PANSTARRS),h,12/27.8394/2017,124.3123,122.3274,27.5720,1.000013,6.794445,2000,7.5,4.0
# From MPC115881
P/2015 X6 (PANSTARRS),e,4.5645,106.9395,329.8061,2.753073,0.2157633,0.17286150,119.9604,04/26.0/2022,2000,g 16.0,4.0
# From MPEC 2021-P47
C/2016 A1 (PANSTARRS),e,121.2087,128.1906,10.1330,39385,0.0000001,0.99986498,0.0000,11/21.3466/2017,2000,g  6.0,4.0
# From MPC100282
P/2016 A2 (Christensen),e,26.4029,291.6176,141.3200,4.753306,0.0951066,0.27063944,238.5602,04/26.0/2022,2000,g 11.5,4.0
# From MPC115881
P/2016 A3 (PANSTARRS),e,8.5103,187.2344,340.9823,7.884104,0.0445221,0.38615616,81.2524,04/26.0/2022,2000,g 10.0,4.0
# From MPC102098
P/2016 A7 (PANSTARRS),e,16.6052,221.4971,352.5737,5.034178,0.0872592,0.56447304,196.8199,04/26.0/2022,2000,g 16.0,4.0
# From MPC109143
P/2016 BA14 (PANSTARRS),e,18.8950,180.5188,351.9230,3.025604,0.1872777,0.66504283,58.5616,04/26.0/2022,2000,g 21.0,4.0
# From MPC110494
C/2016 E1 (PANSTARRS),h,06/03.8752/2017,131.8695,233.1267,47.4549,1.006195,8.173855,2000,6.5,4.0
# From MPEC 2021-P47
P/2016 G1 (PANSTARRS),e,10.9714,204.0226,111.1133,2.582280,0.2375194,0.21095353,95.0431,04/26.0/2022,2000,g 14.0,4.0
# From MPEC 2017-D91
P/2016 J1-A (PANSTARRS),e,14.3288,199.8118,46.9946,3.172015,0.1744622,0.22771756,11.2130,04/26.0/2022,2000,g 16.5,4.0
# From MPEC 2017-A77
P/2016 J1-B (PANSTARRS),e,14.3316,199.8167,46.8857,3.171646,0.1744926,0.22756825,11.3529,04/26.0/2022,2000,g 17.0,4.0
# From MPEC 2022-ED3
C/2016 M1 (PANSTARRS),e,90.9278,92.2404,209.9344,110820,0.0000000,0.99998002,0.0000,08/10.5554/2018,2000,g  5.0,4.0
# From MPEC 2021-N06
C/2016 N4 (MASTER),e,72.6521,353.9902,55.9533,5065,0.0000027,0.99936889,0.0000,09/17.3661/2017,2000,g  8.5,4.0
# From MPEC 2021-P47
C/2016 N6 (PANSTARRS),e,105.8473,298.9577,162.6297,1086,0.0000275,0.99754937,0.0000,07/17.7219/2018,2000,g  7.0,4.0
# From MPC102099
P/2016 P1 (PANSTARRS),e,24.4524,319.5672,270.2059,3.195265,0.1725615,0.28927883,55.1149,04/26.0/2022,2000,g 15.0,4.0
# From MPEC 2022-H30
C/2016 Q2 (PANSTARRS),h,05/12.1743/2021,109.3875,322.2995,84.5470,1.002026,7.081971,2000,6.0,4.0
# From MPC102955
C/2016 Q4 (Kowalski),e,7.2507,271.2967,99.5708,16.99134,0.0140722,0.58264835,21.7680,04/26.0/2022,2000,g  7.0,4.0
# From MPEC 2021-N06
C/2016 R2 (PANSTARRS),e,58.2841,80.5332,33.1108,478.3709,0.0000942,0.99456738,0.0000,05/09.0028/2018,2000,g  7.0,4.0
# From MPC109144
P/2016 R4 (Gibbs),e,10.8779,168.2618,174.0920,5.332112,0.0800489,0.47640154,168.2999,04/26.0/2022,2000,g 12.5,4.0
# From MPC105543
P/2016 S1 (PANSTARRS),e,94.7128,227.6134,273.2733,8.277418,0.0413868,0.71006648,77.2644,04/26.0/2022,2000,g 12.0,4.0
# From MPC110082
C/2016 T3 (PANSTARRS),e,22.7036,271.6816,194.5829,129.1839,0.0006713,0.97955846,0.0000,09/06.6549/2017,2000,g 10.5,4.0
# From MPC106345
P/2016 WM48 (Lemmon),e,117.5318,59.9193,36.1149,8.166671,0.0422315,0.78355151,79.7239,04/26.0/2022,2000,g 15.0,4.0
# From MPEC 2021-P47
C/2016 X1 (Lemmon),e,26.4546,256.3692,224.4741,1268,0.0000218,0.99403742,0.0000,04/27.8472/2019,2000,g  6.0,4.0
# From MPC108594
C/2017 A1 (PANSTARRS),e,49.8147,121.0144,1.9366,74.97713,0.0015181,0.96952775,2.7418,04/26.0/2022,2000,g 13.0,4.0
# From MPC114598
C/2017 AB5 (PANSTARRS),e,32.4570,42.6082,78.2913,2331,0.0000088,0.99605000,0.0000,02/14.4593/2018,2000,g  5.5,4.0
# From MPEC 2022-A21
C/2017 B3 (LINEAR),h,02/02.0445/2019,54.1598,2.1757,284.8193,1.000811,3.926619,2000,6.0,4.0
# From MPC103847
P/2017 B4 (PANSTARRS),e,20.0584,121.4578,11.0197,4.410520,0.1064068,0.36495152,359.9130,01/05.0/2017,2000,g 14.5,4.0
# From MPC104793
P/2017 D1 (Fuls),e,20.7611,82.1828,7.9680,4.828776,0.0928856,0.43653354,198.1472,04/26.0/2022,2000,g 14.0,4.0
# From MPC112391
C/2017 D2 (Barros),e,31.2576,330.9520,334.6367,13069,0.0000007,0.99980886,0.0000,07/14.6376/2017,2000,g 11.0,4.0
# From MPC114598
C/2017 D3 (ATLAS),h,04/27.4510/2017,125.5911,186.7181,340.8046,1.002038,4.965110,2000,8.0,4.0
# From MPC110495
P/2017 D4 (PANSTARRS),e,10.5401,264.9390,212.1805,7.553670,0.0474752,0.62857093,97.7668,04/26.0/2022,2000,g 13.0,4.0
# From MPC106346
C/2017 E1 (Borisov),h,04/10.3865/2017,14.5706,142.5742,152.7905,1.003254,0.907399,2000,14.0,4.0
# From MPEC 2021-P47
C/2017 E3 (PANSTARRS),h,06/07.2588/2017,70.6616,220.7955,334.4566,1.005859,5.935927,2000,6.5,4.0
# From MPC105239
C/2017 E4 (Lovejoy),h,04/23.3047/2017,87.9693,222.7771,87.0914,1.001483,0.492073,2000,17.0,4.0
# From MPC111769
C/2017 F1 (Lemmon),h,11/28.7259/2017,146.4613,158.7883,64.7221,1.001949,4.497876,2000,10.5,4.0
# From MPC114598
C/2017 F2 (PANSTARRS),h,11/26.0587/2017,42.5494,38.6973,134.9389,1.002186,6.927380,2000,7.5,4.0
# From MPC104794
P/2017 G1 (PANSTARRS),e,4.7797,249.6513,224.4201,7.279177,0.0501858,0.65323790,109.9163,04/26.0/2022,2000,g 13.5,4.0
# From MPC108595
P/2017 G2 (PANSTARRS),e,47.9535,79.8108,105.4751,8.056267,0.0431026,0.64759473,76.7726,04/26.0/2022,2000,g 13.0,4.0
# From MPEC 2021-P47
C/2017 G3 (PANSTARRS),e,159.0314,279.4527,73.0136,311.4635,0.0001793,0.99171265,0.0000,04/16.4615/2017,2000,g 14.0,4.0
# From MPC115882
C/2017 K1 (PANSTARRS),h,03/17.9837/2018,154.0207,225.7132,4.4351,1.003387,7.286766,2000,7.0,4.0
# From MPEC 2022-H30
C/2017 K2 (PANSTARRS),h,12/19.6842/2022,87.5599,88.2360,236.1947,1.000754,1.797016,2000,1.5,4.0
# From MPEC 2021-N06
P/2017 K3 (Gasparovic),e,4.2730,354.2873,253.4453,5.584148,0.0746911,0.57955579,133.8816,04/26.0/2022,2000,g 14.5,4.0
# From MPC114598
C/2017 K4 (ATLAS),e,16.6708,298.8960,15.3235,28.66879,0.0064208,0.90728758,10.0715,04/26.0/2022,2000,g 10.0,4.0
# From MPEC 2021-P47
C/2017 K5 (PANSTARRS),h,03/27.2964/2020,82.2400,102.3758,172.0570,1.005475,7.683082,2000,5.0,4.0
# From MPC114599
C/2017 K6 (Jacques),e,57.2280,84.9442,303.7792,1173,0.0000245,0.99829848,0.0000,01/03.8821/2018,2000,g 11.0,4.0
# From MPEC 2021-P47
C/2017 M3 (PANSTARRS),e,77.5927,7.0407,110.2702,166.9131,0.0004571,0.97213688,0.0000,04/28.3990/2017,2000,g 10.5,4.0
# From MPEC 2021-Y10
C/2017 M4 (ATLAS),h,01/17.9627/2019,105.6459,65.9316,167.6182,1.001394,3.253399,2000,6.0,4.0
# From MPC118841
C/2017 M5 (TOTAS),h,06/04.4565/2018,15.8667,216.2890,92.8368,1.005384,6.001147,2000,6.5,4.0
# From MPC114599
C/2017 O1 (ASASSN),e,39.9717,25.7223,20.8375,370.5316,0.0001382,0.99597529,0.0000,10/15.6134/2017,2000,g 11.0,4.0
# From MPC114599
P/2017 P1 (PANSTARRS),e,7.6913,221.3786,122.5727,7.907708,0.0443229,0.31102020,62.2378,04/26.0/2022,2000,g 10.0,4.0
# From MPC114599
C/2017 P2 (PANSTARRS),e,50.0481,165.4557,132.4832,2530,0.0000077,0.99902249,0.0000,12/06.2030/2017,2000,g 10.0,4.0
# From MPC108595
C/2017 S2 (PANSTARRS),e,12.6704,62.3384,306.0883,20.62960,0.0105188,0.82483968,17.8757,04/26.0/2022,2000,g 13.0,4.0
# From MPC114599
C/2017 S3 (PANSTARRS),h,08/16.4059/2018,99.2092,171.3149,255.8533,1.000086,0.206295,2000,12.9,4.0
# From MPC109591
C/2017 S6 (Catalina),h,02/26.1353/2018,152.8665,131.0767,134.9446,1.000830,1.549646,2000,12.5,4.0
# From MPC114599
C/2017 S7 (Lemmon),e,124.2244,262.7362,187.5153,6502,0.0000019,0.99883008,0.0000,05/23.8053/2017,2000,g  7.0,4.0
# From MPC114599
P/2017 S8 (PANSTARRS),e,29.8580,191.5257,254.8101,2.779631,0.2126784,0.39101384,329.5207,04/26.0/2022,2000,g 16.0,4.0
# From MPC107050
P/2017 S9 (PANSTARRS),e,14.1438,146.2235,237.6533,3.154550,0.1759130,0.30548298,305.9125,04/26.0/2022,2000,g 17.0,4.0
# From MPC114600
C/2017 T1 (Heinze),e,96.8854,102.4661,97.0094,11235,0.0000008,0.99994790,0.0000,02/20.7376/2018,2000,g 14.5,4.0
# From MPEC 2021-Y10
C/2017 T2 (PANSTARRS),e,57.2403,64.3881,92.9717,1851,0.0000124,0.99912765,0.0000,05/04.8116/2020,2000,g  5.0,4.0
# From MPC114600
C/2017 T3 (ATLAS),e,88.1862,230.1738,246.8186,1185,0.0000242,0.99930405,0.0000,07/18.9207/2018,2000,g 10.0,4.0
# From MPC115882
P/2017 TW13 (Lemmon),e,44.8496,322.2874,119.9235,7.137694,0.0516853,0.70988855,72.6039,04/26.0/2022,2000,g 15.0,2.0
# From MPC114600
C/2017 U2 (Fuls),e,95.3891,149.7095,147.8691,2729,0.0000069,0.99753981,0.0000,08/28.1780/2017,2000,g  9.0,4.0
# From MPC114600
P/2017 U3 (PANSTARRS),e,15.9189,165.1115,296.4668,4.926694,0.0901303,0.09913625,99.9365,04/26.0/2022,2000,g 11.0,4.0
# From MPEC 2021-P47
C/2017 U4 (PANSTARRS),h,09/22.2882/2018,158.2066,245.9239,158.9815,1.000568,7.721113,2000,7.0,4.0
# From MPC114600
C/2017 U5 (PANSTARRS),e,18.9789,163.0866,261.9933,16.89263,0.0141957,0.74448196,22.5561,04/26.0/2022,2000,g 12.0,4.0
# From MPEC 2022-GA9
C/2017 U7 (PANSTARRS),h,09/14.6847/2019,142.6004,276.2517,326.3734,1.000883,6.426154,2000,8.3,2.0
# From MPC114600
C/2017 W2 (Leonard),e,98.2026,312.8281,168.9195,13.62364,0.0196004,0.71029746,32.0943,04/26.0/2022,2000,g 11.0,4.0
# From MPC114601
P/2017 W3 (Gibbs),e,18.1668,210.2373,327.8456,7.836618,0.0449274,0.50656926,68.2182,04/26.0/2022,2000,g 10.5,4.0
# From MPEC 2021-R75
C/2017 X1 (PANSTARRS),e,31.3210,251.1408,283.2137,31.11812,0.0056779,0.84999710,8.0150,04/26.0/2022,2000,g 10.0,4.0
# From MPC117069
C/2017 Y1 (PANSTARRS),e,55.2582,307.5066,134.2490,1768,0.0000133,0.99790453,0.0000,08/31.5294/2017,2000,g 11.5,4.0
# From MPEC 2022-ED3
C/2017 Y2 (PANSTARRS),h,11/04.9669/2020,128.4232,65.9985,147.9234,1.001055,4.632907,2000,15.0,4.0
# From MPC111770
P/2017 Y3 (Leonard),e,27.5576,153.8431,67.6064,9.832219,0.0319688,0.86968686,49.1187,04/26.0/2022,2000,g 16.5,4.0
# From MPC114601
C/2018 A1 (PANSTARRS),e,53.6136,336.6589,96.1955,25.10375,0.0078360,0.90404999,12.9125,04/26.0/2022,2000,g 12.5,4.0
# From MPEC 2021-P47
C/2018 A3 (ATLAS),e,139.5371,194.2929,86.3604,398.5454,0.0001239,0.99177840,0.0000,01/11.7455/2019,2000,g  8.5,4.0
# From MPC114601
C/2018 A4 (PANSTARRS),e,3.1494,97.6034,355.9744,12.18580,0.0231698,0.80354652,33.3223,04/26.0/2022,2000,g 14.0,4.0
# From MPC109147
